[{"OBJECT_NAME":"STARLINK-6053","OBJECT_ID":"2023-064U","EPOCH":"2026-03-09T22:00:01.999584","MEAN_MOTION":14.98333996,"ECCENTRICITY":0.00031372,"INCLINATION":70.0004,"RA_OF_ASC_NODE":143.7529,"ARG_OF_PERICENTER":271.4983,"MEAN_ANOMALY":77.4666,"EPHEMERIS_TYPE":0,"CLASSIFICATION_TYPE":"U","NORAD_CAT_ID":56466,"ELEMENT_SET_NO":999,"REV_AT_EPOCH":575,"BSTAR":-0.0015211269,"MEAN_MOTION_DOT":-0.00018198,"MEAN_MOTION_DDOT":0},{"OBJECT_NAME":"FENGYUN 1C DEB","OBJECT_ID":"1999-025BYC","EPOCH":"2026-03-06T06:01:48.323136","MEAN_MOTION":14.23309758,"ECCENTRICITY":0.03388034,"INCLINATION":99.2996,"RA_OF_ASC_NODE":228.0472,"ARG_OF_PERICENTER":87.1809,"MEAN_ANOMALY":276.8086,"EPHEMERIS_TYPE":0,"CLASSIFICATION_TYPE":"U","NORAD_CAT_ID":31537,"ELEMENT_SET_NO":999,"REV_AT_EPOCH":94468,"BSTAR":0.0028272001,"MEAN_MOTION_DOT":0.00011573,"MEAN_MOTION_DDOT":0}]
